GOES 2                  
1 10061U 77048A   02348.29393834 -.00000086  00000-0  00000+0 0   188
2 10061  14.1072  13.9503 0013653 191.4086 168.5564  0.99400918 38177
GOES 6                  
1 14050U 83041A   02348.24240013  .00000075  00000-0  10000-3 0  4046
2 14050  10.3169  35.9007 0002737 357.5651   2.3926  1.00281064129979
GOES 7                  
1 17561U 87022A   02347.65219263  .00000096  00000-0  10000-3 0  7727
2 17561   7.4820  55.9188 0005491 298.5519 149.1264  1.00300094 41073
INSAT 1D                
1 20643U 90051A   02347.96948707 -.00000020  00000-0  10000-3 0  8701
2 20643   4.0409  81.4461 0011547 327.8468  91.5515  1.00278670 32657
FENGYUN 1B              
1 20788U 90081A   02348.52670078  .00000203  00000-0  16164-3 0  8349
2 20788  99.0173 326.3817 0016561  52.0482 308.2177 14.02115150628280
METEOSAT 5 (MOP 2)      
1 21140U 91015B   02348.74303971  .00000037  00000-0  10000-3 0  6389
2 21140   5.4833  70.3699 0001025 158.6663 184.5061  1.00273651 45380
NOAA 12                 
1 21263U 91032A   02348.90511896  .00000537  00000-0  24758-3 0  8976
2 21263  98.6197 334.6756 0012179 210.1803 149.8676 14.25022126601862
METEOR 3-5              
1 21655U 91056A   02346.98363896  .00000051  00000-0  10000-3 0  5218
2 21655  82.5569  86.6174 0013792  12.2177 347.9275 13.16974952544580
INSAT 2A                
1 22027U 92041A   02347.67469938 -.00000051  00000-0  10000-3 0  5220
2 22027   4.4596  78.4650 0003070 346.1078 253.8727  1.00227436 38002
INSAT 2B                
1 22724U 93048B   02346.20990389 -.00000345  00000-0  10000-3 0  2941
2 22724   1.9186  91.3800 0000542 166.8365   9.5791  1.00270006 34713
METEOR 2-21             
1 22782U 93055A   02349.44690999  .00000108  00000-0  84313-4 0  4662
2 22782  82.5489 266.5422 0022522 165.2143 194.9680 13.83522326469080
METEOSAT 6              
1 22912U 93073B   02345.89820024  .00000075  00000-0  00000+0 0  5936
2 22912   2.5152  82.6746 0007437  44.7780 285.9727  1.00279864 31604
GOES 8                  
1 23051U 94022A   02349.23071762 -.00000230  00000-0  00000+0 0  5197
2 23051   0.4638  97.4912 0002363 159.9136 194.7771  1.00270577 39157
ELEKTRO                 
1 23327U 94069A   02344.79110937 -.00000042  00000-0  10000-3 0  6689
2 23327   5.1139  75.2848 0004469 169.8072 189.9807  1.00251998 29747
NOAA 14                 
1 23455U 94089A   02348.84604675  .00000260  00000-0  16363-3 0  4520
2 23455  99.1897   0.6833 0009975  55.9503 304.2614 14.13265865410197
GMS 5                   
1 23522U 95011B   02346.28861020 -.00000275  00000-0  00000+0 0    87
2 23522   1.5882  82.8967 0000495   6.3886 235.1308  1.00260095 28206
GOES 9                  
1 23581U 95025A   02348.30566128 -.00000062  00000-0  00000+0 0  4317
2 23581   0.4965  95.6415 0006916 240.5930 110.1279  1.00272612 27708
INSAT 2C                
1 23731U 95067B   02347.77154288  .00000141  00000-0  10000-3 0  8596
2 23731   0.6226 110.5672 0006751  53.3987 243.9941  1.00277144 25724
GOES 10                 
1 24786U 97019A   02348.75659653  .00000110  00000-0  00000+0 0  4622
2 24786   0.0333 270.8042 0002104  10.2429 299.0977  1.00268078 20676
FENGYUN 2A              
1 24834U 97029A   02348.84940602 -.00000180  00000-0  00000+0 0  9380
2 24834   2.4096  89.0559 0001574 217.4574 169.1983  1.00271137 20187
ORBVIEW 2 (SEASTAR)     
1 24883U 97037A   02348.84015418  .00001013  00000-0  22517-3 0  9859
2 24883  98.2222  85.4305 0002600  53.4654 306.6784 14.59089132285766
METEOSAT 7              
1 24932U 97049B   02348.63865181  .00000015  00000-0  00000+0 0  2127
2 24932   0.1019   1.9010 0001295 229.6337  81.5571  1.00267454 19357
NOAA 15                 
1 25338U 98030A   02348.91136892  .00000295  00000-0  14654-3 0  9345
2 25338  98.5535   7.8349 0010758 144.1286 216.0618 14.24206521238459
RESURS O1-N4            
1 25394U 98043A   02349.56473525  .00000473  00000-0  22575-3 0  4007
2 25394  98.6403  63.6624 0000963 335.1721  24.9412 14.23840682230287
INSAT 2E                
1 25666U 99016A   02348.71573336 -.00000144  00000-0  10000-3 0  6094
2 25666   0.0186 256.2423 0004834  48.2840 119.2799  1.00268786 13685
FENGYUN 1C              
1 25730U 99025A   02347.18029203  .00000091  00000-0  73275-4 0  7168
2 25730  98.6391   9.1005 0014106 191.5223 168.5629 14.11724912185121
QUIKSCAT                
1 25789U 99034A   02347.09377128  .00000171  00000-0  89210-4 0  6911
2 25789  98.6292 170.0858 0001391  31.6989 328.4275 14.26557863181365
INSAT 3B                
1 26108U 00016B   02348.72861412 -.00000146  00000-0  10000-3 0  3723
2 26108   0.0477 262.1977 0001450 243.8467 282.5656  1.00270936 10020
GOES 11                 
1 26352U 00022A   02348.42278262 -.00000030  00000-0  10000-3 0  9316
2 26352   0.0298 272.2156 0004850 339.9805 231.8542  1.00258894  9571
FENGYUN 2B              
1 26382U 00032A   02348.91796678 -.00000309  00000-0  00000+0 0  7480
2 26382   0.7302 286.1520 0000462 201.0144  30.9797  1.00280916  9059
NOAA 16                 
1 26536U 00055A   02348.74669366  .00000603  00000-0  35453-3 0  1248
2 26536  98.8923 292.5470 0011017 128.3773 231.8390 14.11859717114863
GOES 12                 
1 26871U 01031A   02349.42541535 -.00000070  00000-0  10000-3 0  7255
2 26871   0.3905  98.6075 0001859  75.1559 318.8399  1.00262429  5184
METEOR-3M               
1 27001U 01056A   02348.55975799  .00000138  00000-0  21472-3 0  1123
2 27001  99.5956 222.0827 0014682  62.1232 298.1398 13.68192391 50441
INSAT 3C                
1 27298U 02002A   02348.81538951 -.00000058  00000-0  00000+0 0  1837
2 27298   0.0247 269.7853 0000421 264.1260 276.9563  1.00272093  3286
FENGYUN 1D              
1 27431U 02024B   02347.21272355 -.00000113  00000-0 -40373-4 0  1651
2 27431  98.7786  32.9668 0014728 317.4658  42.5370 14.09170052 29881
NOAA 17                 
1 27453U 02032A   02348.83480071  .00000462  00000-0  22381-3 0  2327
2 27453  98.7666  55.3583 0011582 183.4668 176.6430 14.23242955 24614
MSG-1                   
1 27509U 02040B   02346.05550348 -.00000079  00000-0  00000+0 0   878
2 27509   1.8207 301.7130 0000196 126.7129  21.4762  1.00271099  1149
METSAT 1                
1 27525U 02043A   02348.85869455 -.00000057  00000-0  00000+0 0   619
2 27525   0.2800 271.2136 0004429 351.4972 203.7773  1.00272166   975
